H1 CPF 01  gfz 2021 05 06 12  6262 tandemx   
H2 1003001  6202 36605    2021 05 06 12 59 42 2021 05 11 00 00 42   120 1 1  0 0 0
H9
10 0 59343  19422.000000  0    5803520.497   1415841.034   3422086.544
10 0 59343  19542.000000  0    6232629.034   1323184.119   2611326.232
10 0 59343  19662.000000  0    6550877.432   1200850.401   1754581.033
10 0 59343  19782.000000  0    6752224.571   1052973.076    866939.514
10 0 59343  19902.000000  0    6832771.877    884222.014    -35964.732
10 0 59343  20022.000000  0    6790842.281    699682.575   -938236.999
10 0 59343  20142.000000  0    6627012.533    504725.539  -1824011.017
10 0 59343  20262.000000  0    6344100.117    304871.275  -2677735.186
10 0 59343  20382.000000  0    5947106.503    105652.358  -3484451.182
10 0 59343  20502.000000  0    5443117.658    -87522.014  -4230059.109
10 0 59343  20622.000000  0    4841163.885   -269496.344  -4901563.203
10 0 59343  20742.000000  0    4152044.917   -435490.478  -5487292.138
10 0 59343  20862.000000  0    3388126.539   -581210.471  -5977093.552
10 0 59343  20982.000000  0    2563110.968   -702947.078  -6362500.567
10 0 59343  21102.000000  0    1691786.129   -797658.461  -6636866.140
10 0 59343  21222.000000  0     789761.247   -863037.200  -6795466.446
10 0 59343  21342.000000  0    -126809.706   -897560.303  -6835574.327
10 0 59343  21462.000000  0   -1041511.576   -900520.658  -6756500.096
10 0 59343  21582.000000  0   -1937954.734   -872040.822  -6559602.614
10 0 59343  21702.000000  0   -2800062.503   -813067.978  -6248267.799
10 0 59343  21822.000000  0   -3612352.370   -725350.886  -5827855.907
10 0 59343  21942.000000  0   -4360211.114   -611398.977  -5305620.625
10 0 59343  22062.000000  0   -5030159.560   -474423.627  -4690594.884
10 0 59343  22182.000000  0   -5610099.924   -318263.214  -3993446.278
10 0 59343  22302.000000  0   -6089543.859   -147292.861  -3226302.957
10 0 59343  22422.000000  0   -6459813.802     33680.336  -2402549.558
10 0 59343  22542.000000  0   -6714213.404    219533.428  -1536598.182
10 0 59343  22662.000000  0   -6848162.544    404953.800   -643636.029
10 0 59343  22782.000000  0   -6859290.760    584570.779    260646.797
10 0 59343  22902.000000  0   -6747485.309    753090.492   1160339.359
10 0 59343  23022.000000  0   -6514896.395    905430.037   2039597.480
10 0 59343  23142.000000  0   -6165896.542   1036847.532   2882932.349
10 0 59343  23262.000000  0   -5706994.101   1143064.660   3675492.266
10 0 59343  23382.000000  0   -5146703.625   1220378.345   4403330.319
10 0 59343  23502.000000  0   -4495378.161   1265759.061   5053652.421
10 0 59343  23622.000000  0   -3765008.095   1276933.064   5615041.558
10 0 59343  23742.000000  0   -2968991.946   1252447.367   6077655.613
10 0 59343  23862.000000  0   -2121882.962   1191715.825   6433396.459
10 0 59343  23982.000000  0   -1239115.890   1095046.081   6676046.121
10 0 59343  24102.000000  0    -336721.964    963645.879   6801368.040
10 0 59343  24222.000000  0     568962.367    799609.437   6807175.715
10 0 59343  24342.000000  0    1461590.130    605883.917   6693368.238
10 0 59343  24462.000000  0    2325097.605    386216.920   6461932.037
10 0 59343  24582.000000  0    3143992.770    145085.268   6116909.302
10 0 59343  24702.000000  0    3903635.251   -112394.094   5664332.281
10 0 59343  24822.000000  0    4590501.441   -380569.532   5112123.123
10 0 59343  24942.000000  0    5192430.983   -653374.288   4469961.285
10 0 59343  25062.000000  0    5698849.976   -924458.527   3749118.891
10 0 59343  25182.000000  0    6100966.749  -1187331.132   2962266.276
10 0 59343  25302.000000  0    6391934.374  -1435507.845   2123248.868
10 0 59343  25422.000000  0    6566975.924  -1662661.650   1246840.476
10 0 59343  25542.000000  0    6623469.173  -1862772.895    348478.017
10 0 59343  25662.000000  0    6560988.837  -2030275.875   -556018.681
10 0 59343  25782.000000  0    6381302.898  -2160195.447  -1450734.897
10 0 59343  25902.000000  0    6088325.352  -2248272.397  -2319949.727
10 0 59343  26022.000000  0    5688025.200  -2291073.227  -3148419.375
10 0 59343  26142.000000  0    5188295.815  -2286081.901  -3921647.853
10 0 59343  26262.000000  0    4598789.621  -2231772.001  -4626140.698
10 0 59343  26382.000000  0    3930721.261  -2127657.933  -5249637.841
10 0 59343  26502.000000  0    3196643.693  -1974324.038  -5781319.902
10 0 59343  26622.000000  0    2410205.600  -1773431.223  -6211984.989
10 0 59343  26742.000000  0    1585895.364  -1527701.681  -6534197.785
10 0 59343  26862.000000  0     738772.871  -1240881.724  -6742407.450
10 0 59343  26982.000000  0    -115802.807   -917684.631  -6833032.726
10 0 59343  27102.000000  0    -962446.422   -563713.924  -6804516.308
10 0 59343  27222.000000  0   -1786016.831   -185368.411  -6657348.862
10 0 59343  27342.000000  0   -2571881.775    210270.853  -6394060.708
10 0 59343  27462.000000  0   -3306171.561    615568.828  -6019182.509
10 0 59343  27582.000000  0   -3976020.349   1022479.237  -5539176.681
10 0 59343  27702.000000  0   -4569792.709   1422699.243  -4962336.919
10 0 59343  27822.000000  0   -5077290.268   1807834.918  -4298657.447
10 0 59343  27942.000000  0   -5489934.877   2169574.660  -3559670.003
10 0 59343  28062.000000  0   -5800922.929   2499865.001  -2758252.090
10 0 59343  28182.000000  0   -6005349.027   2791086.582  -1908408.505
10 0 59343  28302.000000  0   -6100294.421   3036226.075  -1025028.373
10 0 59343  28422.000000  0   -6084877.106   3229039.891   -123622.021
10 0 59343  28542.000000  0   -5960261.694   3364204.506    779957.594
10 0 59343  28662.000000  0   -5729626.630   3437449.137   1669802.619
10 0 59343  28782.000000  0   -5398090.280   3445668.043   2530239.327
10 0 59343  28902.000000  0   -4972598.235   3387008.799   3346112.425
10 0 59343  29022.000000  0   -4461775.073   3260934.483   4103059.327
10 0 59343  29142.000000  0   -3875743.289   3068257.807   4787767.540
10 0 59343  29262.000000  0   -3225916.271   2811147.357   5388209.377
10 0 59343  29382.000000  0   -2524769.195   2493106.976   5893852.644
10 0 59343  29502.000000  0   -1785592.603   2118927.125   6295841.556
10 0 59343  29622.000000  0   -1022234.960   1694610.135   6587146.025
10 0 59343  29742.000000  0    -248840.720   1227271.483   6762676.903
10 0 59343  29862.000000  0     520411.346    725018.690   6819369.568
10 0 59343  29982.000000  0    1271567.524    196810.320   6756233.869
10 0 59343  30102.000000  0    1991151.039   -347703.078   6574370.397
10 0 59343  30222.000000  0    2666403.130   -898354.756   6276953.360
10 0 59343  30342.000000  0    3285510.075  -1444650.679   5869179.371
10 0 59343  30462.000000  0    3837813.296  -1975969.198   5358182.322
10 0 59343  30582.000000  0    4313996.969  -2481767.743   4752913.617
10 0 59343  30702.000000  0    4706250.649  -2951792.992   4063991.631
10 0 59343  30822.000000  0    5008404.736  -3376291.454   3303519.950
10 0 59343  30942.000000  0    5216034.751  -3746214.177   2484875.317
10 0 59343  31062.000000  0    5326529.993  -4053410.635   1622469.776
10 0 59343  31182.000000  0    5339125.724  -4290808.300    731492.710
10 0 59343  31302.000000  0    5254898.710  -4452572.155   -172363.499
10 0 59343  31422.000000  0    5076725.379  -4534240.871  -1073188.299
10 0 59343  31542.000000  0    4809203.129  -4532834.811  -1955142.247
10 0 59343  31662.000000  0    4458537.142  -4446933.716  -2802743.495
10 0 59343  31782.000000  0    4032396.129  -4276722.419  -3601144.898
10 0 59343  31902.000000  0    3539741.232  -4024003.754  -4336396.513
10 0 59343  32022.000000  0    2990632.649  -3692178.843  -4995687.669
10 0 59343  32142.000000  0    2396018.870  -3286196.353  -5567564.436
10 0 59343  32262.000000  0    1767515.206  -2812472.798  -6042118.550
10 0 59343  32382.000000  0    1117176.554  -2278787.175  -6411148.804
10 0 59343  32502.000000  0     457266.366  -1694149.526  -6668293.206
10 0 59343  32622.000000  0    -199972.259  -1068646.461  -6809127.689
10 0 59343  32742.000000  0    -842538.759   -413268.167  -6831232.843
10 0 59343  32862.000000  0   -1458888.530    260280.791  -6734230.475
10 0 59343  32982.000000  0   -2038135.659    939785.162  -6519788.754
10 0 59343  33102.000000  0   -2570240.553   1612734.800  -6191596.593
10 0 59343  33222.000000  0   -3046180.947   2266549.190  -5755307.314
10 0 59343  33342.000000  0   -3458104.998   2888808.764  -5218452.333
10 0 59343  33462.000000  0   -3799464.266   3467489.844  -4590323.192
10 0 59343  33582.000000  0   -4065123.155   3991198.084  -3881821.031
10 0 59343  33702.000000  0   -4251440.575   4449395.579  -3105276.205
10 0 59343  33822.000000  0   -4356323.606   4832617.608  -2274241.367
10 0 59343  33942.000000  0   -4379252.293   5132673.101  -1403258.797
10 0 59343  34062.000000  0   -4321273.887   5342825.143   -507606.287
10 0 59343  34182.000000  0   -4184964.465   5457945.492    396976.223
10 0 59343  34302.000000  0   -3974358.927   5474637.034   1294569.678
10 0 59343  34422.000000  0   -3694851.830   5391323.750   2169365.846
10 0 59343  34542.000000  0   -3353069.587   5208301.714   3005956.213
10 0 59343  34662.000000  0   -2956717.127   4927751.642   3789610.799
10 0 59343  34782.000000  0   -2514405.879   4553714.368   4506542.122
10 0 59343  34902.000000  0   -2035466.143   4092029.024   5144150.573
10 0 59343  35022.000000  0   -1529748.949   3550235.393   5691245.877
10 0 59343  35142.000000  0   -1007421.375   2937443.216   6138240.355
10 0 59343  35262.000000  0    -478761.081   2264171.806   6477311.149
10 0 59343  35382.000000  0      46045.296   1542164.938   6702530.334
10 0 59343  35502.000000  0     557097.934    784183.080   6809963.707
10 0 59343  35622.000000  0    1044969.947      3776.686   6797734.270
10 0 59343  35742.000000  0    1500880.163   -784954.956   6666053.465
10 0 59343  35862.000000  0    1916850.810  -1567618.178   6417218.383
99
